GSAT0225 (GALILEO 29)   
1 59598U 24079A   26189.24752330 -.00000009  00000+0  00000+0 0  9998
2 59598  55.1311 100.4922 0000777 311.6524 239.2330  1.70473736 13672
GSAT0227 (GALILEO 30)   
1 59600U 24079C   26187.94680255 -.00000003  00000+0  00000+0 0  9997
2 59600  55.1260 100.5264 0002634  63.1115 296.9336  1.70473885 13703
GSAT0232 (GALILEO 32)   
1 61182U 24167A   26191.13649870  .00000090  00000+0  00000+0 0  9992
2 61182  55.1805 220.6842 0006470 230.0654 143.1873  1.70473966 11276
GSAT0226 (GALILEO 31)   
1 61183U 24167B   26189.78713793  .00000087  00000+0  00000+0 0  9993
2 61183  55.1792 220.7283 0003163 233.9566 122.4953  1.70473959 11217
GSAT0233 (GALILEO 33)   
1 67160U 25302A   26189.73406278 -.00000012  00000+0  00000+0 0  9997
2 67160  54.3473 101.5178 0000858 172.7787 247.6086  1.70473891  3490
GSAT0234 (GALILEO 34)   
1 67162U 25302C   26189.63590403 -.00000012  00000+0  00000+0 0  9992
2 67162  54.3489 101.5195 0002191 318.8515 221.3959  1.70473878  3541
